start=new Date('2022-05-05T00:00:00.000Z').valueOf();
sats=[{"LAUNCH_DATE":"2020-10-06","MEAN_MOTION_DOT":"0.00001256","MEAN_MOTION_DDOT":"0.0000000000000","MEAN_ANOMALY":"295.6072","MEAN_MOTION":"15.06401154","RCS_SIZE":"LARGE","SITE":"AFETR","PERIAPSIS":"546.107","COUNTRY_CODE":"US","DECAY_DATE":null,"PERIOD":"95.592","REF_FRAME":"TEME","GP_ID":"202715005","ARG_OF_PERICENTER":"64.5081","FILE":"3429148","ECCENTRICITY":"0.00015930","CLASSIFICATION_TYPE":"U","TLE_LINE2":"2 46581  53.0560 343.7692 0001593  64.5081 295.6072 15.06401154 88027","APOAPSIS":"548.313","BSTAR":"0.00010317000000","OBJECT_NAME":"STARLINK-1712","SEMIMAJOR_AXIS":"6925.345","ELEMENT_SET_NO":"999","RA_OF_ASC_NODE":"343.7692","TIME_SYSTEM":"UTC","REV_AT_EPOCH":"8802","MEAN_ELEMENT_THEORY":"SGP4","OBJECT_TYPE":"PAYLOAD","EPHEMERIS_TYPE":"0","OBJECT_ID":"2020-070BB","NORAD_CAT_ID":"46581","INCLINATION":"53.0560","CENTER_NAME":"EARTH","EPOCH":"2022-05-04T17:21:49.521312","TLE_LINE1":"1 46581U 20070BB  22124.72348983  .00001256  00000-0  10317-3 0  9997"},{"FILE":"3428698","REF_FRAME":"TEME","PERIOD":"95.592","ARG_OF_PERICENTER":"71.5485","GP_ID":"202680853","DECAY_DATE":null,"COUNTRY_CODE":"US","PERIAPSIS":"546.195","RCS_SIZE":"LARGE","SITE":"AFETR","MEAN_MOTION":"15.06399213","LAUNCH_DATE":"2020-10-06","MEAN_ANOMALY":"288.5665","MEAN_MOTION_DDOT":"0.0000000000000","MEAN_MOTION_DOT":"-0.00000509","CENTER_NAME":"EARTH","TLE_LINE1":"1 46582U 20070BC  22124.31067076 -.00000509  00000-0 -15283-4 0  9994","EPOCH":"2022-05-04T07:27:21.953664","INCLINATION":"53.0599","NORAD_CAT_ID":"46582","OBJECT_ID":"2020-070BC","EPHEMERIS_TYPE":"0","OBJECT_TYPE":"PAYLOAD","TIME_SYSTEM":"UTC","REV_AT_EPOCH":"8796","MEAN_ELEMENT_THEORY":"SGP4","RA_OF_ASC_NODE":"345.6062","ELEMENT_SET_NO":"999","BSTAR":"-0.00001528300000","OBJECT_NAME":"STARLINK-1728","SEMIMAJOR_AXIS":"6925.351","TLE_LINE2":"2 46582  53.0599 345.6062 0001474  71.5485 288.5665 15.06399213 87969","APOAPSIS":"548.237","CLASSIFICATION_TYPE":"U","ECCENTRICITY":"0.00014740"},{"SITE":"AFETR","RCS_SIZE":"LARGE","PERIAPSIS":"546.030","MEAN_MOTION":"15.06408379","MEAN_ANOMALY":"290.8003","MEAN_MOTION_DDOT":"0.0000000000000","MEAN_MOTION_DOT":"0.00003543","LAUNCH_DATE":"2020-10-06","ARG_OF_PERICENTER":"69.3165","GP_ID":"202716001","REF_FRAME":"TEME","PERIOD":"95.592","DECAY_DATE":null,"FILE":"3429148","COUNTRY_CODE":"US","ELEMENT_SET_NO":"999","RA_OF_ASC_NODE":"2.9992","CLASSIFICATION_TYPE":"U","ECCENTRICITY":"0.00016720","SEMIMAJOR_AXIS":"6925.323","BSTAR":"0.00025659000000","OBJECT_NAME":"STARLINK-1729","APOAPSIS":"548.346","TLE_LINE2":"2 46583  53.0567   2.9992 0001672  69.3165 290.8003 15.06408379 87764","NORAD_CAT_ID":"46583","OBJECT_ID":"2020-070BD","TLE_LINE1":"1 46583U 20070BD  22124.89119459  .00003543  00000-0  25659-3 0  9997","EPOCH":"2022-05-04T21:23:19.212576","CENTER_NAME":"EARTH","INCLINATION":"53.0567","OBJECT_TYPE":"PAYLOAD","REV_AT_EPOCH":"8776","MEAN_ELEMENT_THEORY":"SGP4","TIME_SYSTEM":"UTC","EPHEMERIS_TYPE":"0"},{"SEMIMAJOR_AXIS":"6925.337","OBJECT_NAME":"STARLINK-1732","BSTAR":"0.00011359000000","APOAPSIS":"548.184","TLE_LINE2":"2 46584  53.0555 345.6012 0001418  66.4554 293.6584 15.06403884 87963","CLASSIFICATION_TYPE":"U","ECCENTRICITY":"0.00014180","RA_OF_ASC_NODE":"345.6012","ELEMENT_SET_NO":"999","EPHEMERIS_TYPE":"0","OBJECT_TYPE":"PAYLOAD","REV_AT_EPOCH":"8796","MEAN_ELEMENT_THEORY":"SGP4","TIME_SYSTEM":"UTC","TLE_LINE1":"1 46584U 20070BE  22124.31434576  .00001411  00000-0  11359-3 0  9999","EPOCH":"2022-05-04T07:32:39.473664","CENTER_NAME":"EARTH","INCLINATION":"53.0555","NORAD_CAT_ID":"46584","OBJECT_ID":"2020-070BE","MEAN_MOTION":"15.06403884","MEAN_MOTION_DOT":"0.00001411","MEAN_MOTION_DDOT":"0.0000000000000","MEAN_ANOMALY":"293.6584","LAUNCH_DATE":"2020-10-06","PERIAPSIS":"546.220","SITE":"AFETR","RCS_SIZE":"LARGE","COUNTRY_CODE":"US","FILE":"3428698","GP_ID":"202681854","ARG_OF_PERICENTER":"66.4554","REF_FRAME":"TEME","PERIOD":"95.592","DECAY_DATE":null},{"COUNTRY_CODE":"US","REF_FRAME":"TEME","PERIOD":"95.592","GP_ID":"202682604","ARG_OF_PERICENTER":"75.0071","DECAY_DATE":null,"FILE":"3428698","MEAN_MOTION":"15.06406164","LAUNCH_DATE":"2020-10-06","MEAN_MOTION_DDOT":"0.0000000000000","MEAN_MOTION_DOT":"0.00002834","MEAN_ANOMALY":"285.1088","RCS_SIZE":"LARGE","SITE":"AFETR","PERIAPSIS":"546.127","OBJECT_TYPE":"PAYLOAD","TIME_SYSTEM":"UTC","REV_AT_EPOCH":"8796","MEAN_ELEMENT_THEORY":"SGP4","EPHEMERIS_TYPE":"0","NORAD_CAT_ID":"46585","OBJECT_ID":"2020-070BF","CENTER_NAME":"EARTH","EPOCH":"2022-05-04T07:59:12.032160","TLE_LINE1":"1 46585U 20070BF  22124.33277815  .00002834  00000-0  20907-3 0  9992","INCLINATION":"53.0561","CLASSIFICATION_TYPE":"U","ECCENTRICITY":"0.00015420","BSTAR":"0.00020907000000","OBJECT_NAME":"STARLINK-1736","SEMIMAJOR_AXIS":"6925.330","TLE_LINE2":"2 46585  53.0561 345.5157 0001542  75.0071 285.1088 15.06406164 87967","APOAPSIS":"548.263","ELEMENT_SET_NO":"999","RA_OF_ASC_NODE":"345.5157"},{"MEAN_MOTION":"15.06404404","LAUNCH_DATE":"2020-10-06","MEAN_MOTION_DOT":"0.00001549","MEAN_MOTION_DDOT":"0.0000000000000","MEAN_ANOMALY":"258.8211","PERIAPSIS":"546.185","RCS_SIZE":"LARGE","SITE":"AFETR","COUNTRY_CODE":"US","FILE":"3429148","REF_FRAME":"TEME","PERIOD":"95.592","ARG_OF_PERICENTER":"101.2943","GP_ID":"202715754","DECAY_DATE":null,"BSTAR":"0.00012286000000","OBJECT_NAME":"STARLINK-1737","SEMIMAJOR_AXIS":"6925.335","TLE_LINE2":"2 46586  53.0535 343.7856 0001466 101.2943 258.8211 15.06404404 88028","APOAPSIS":"548.215","CLASSIFICATION_TYPE":"U","ECCENTRICITY":"0.00014660","RA_OF_ASC_NODE":"343.7856","ELEMENT_SET_NO":"999","EPHEMERIS_TYPE":"0","OBJECT_TYPE":"PAYLOAD","TIME_SYSTEM":"UTC","REV_AT_EPOCH":"8802","MEAN_ELEMENT_THEORY":"SGP4","CENTER_NAME":"EARTH","TLE_LINE1":"1 46586U 20070BG  22124.71980243  .00001549  00000-0  12286-3 0  9994","EPOCH":"2022-05-04T17:16:30.929952","INCLINATION":"53.0535","NORAD_CAT_ID":"46586","OBJECT_ID":"2020-070BG"},{"NORAD_CAT_ID":"46588","OBJECT_ID":"2020-070BJ","CENTER_NAME":"EARTH","EPOCH":"2022-05-04T07:16:44.872896","TLE_LINE1":"1 46588U 20070BJ  22124.30329714  .00001921  00000-0  14786-3 0  9992","INCLINATION":"53.0560","OBJECT_TYPE":"PAYLOAD","TIME_SYSTEM":"UTC","MEAN_ELEMENT_THEORY":"SGP4","REV_AT_EPOCH":"8796","EPHEMERIS_TYPE":"0","ELEMENT_SET_NO":"999","RA_OF_ASC_NODE":"345.6498","CLASSIFICATION_TYPE":"U","ECCENTRICITY":"0.00015810","BSTAR":"0.00014786000000","OBJECT_NAME":"STARLINK-1746","SEMIMAJOR_AXIS":"6925.363","TLE_LINE2":"2 46588  53.0560 345.6498 0001581  60.6024 299.5123 15.06395363 87966","APOAPSIS":"548.323","REF_FRAME":"TEME","PERIOD":"95.592","ARG_OF_PERICENTER":"60.6024","GP_ID":"202681602","DECAY_DATE":null,"FILE":"3428698","COUNTRY_CODE":"US","RCS_SIZE":"LARGE","SITE":"AFETR","PERIAPSIS":"546.133","MEAN_MOTION":"15.06395363","LAUNCH_DATE":"2020-10-06","MEAN_MOTION_DDOT":"0.0000000000000","MEAN_ANOMALY":"299.5123","MEAN_MOTION_DOT":"0.00001921"},{"COUNTRY_CODE":"US","FILE":"3428698","GP_ID":"202682354","ARG_OF_PERICENTER":"80.6302","REF_FRAME":"TEME","PERIOD":"95.592","DECAY_DATE":null,"MEAN_MOTION":"15.06398047","MEAN_ANOMALY":"279.4839","MEAN_MOTION_DDOT":"0.0000000000000","MEAN_MOTION_DOT":"0.00002147","LAUNCH_DATE":"2020-10-06","PERIAPSIS":"546.289","SITE":"AFETR","RCS_SIZE":"LARGE","EPHEMERIS_TYPE":"0","OBJECT_TYPE":"PAYLOAD","REV_AT_EPOCH":"8791","MEAN_ELEMENT_THEORY":"SGP4","TIME_SYSTEM":"UTC","TLE_LINE1":"1 46589U 20070BK  22124.03053607  .00002147  00000-0  16302-3 0  9995","EPOCH":"2022-05-04T00:43:58.316448","CENTER_NAME":"EARTH","INCLINATION":"53.0560","NORAD_CAT_ID":"46589","OBJECT_ID":"2020-070BK","SEMIMAJOR_AXIS":"6925.355","BSTAR":"0.00016302000000","OBJECT_NAME":"STARLINK-1749","APOAPSIS":"548.150","TLE_LINE2":"2 46589  53.0560 346.8720 0001344  80.6302 279.4839 15.06398047 87914","CLASSIFICATION_TYPE":"U","ECCENTRICITY":"0.00013440","RA_OF_ASC_NODE":"346.8720","ELEMENT_SET_NO":"999"},{"ECCENTRICITY":"0.00014970","CLASSIFICATION_TYPE":"U","APOAPSIS":"548.301","TLE_LINE2":"2 46591  53.0556 343.6422 0001497  73.6983 286.4170 15.06383340 87086","SEMIMAJOR_AXIS":"6925.400","BSTAR":"0.00004384200000","OBJECT_NAME":"STARLINK-1755","ELEMENT_SET_NO":"999","RA_OF_ASC_NODE":"343.6422","REV_AT_EPOCH":"8708","MEAN_ELEMENT_THEORY":"SGP4","TIME_SYSTEM":"UTC","OBJECT_TYPE":"PAYLOAD","EPHEMERIS_TYPE":"0","OBJECT_ID":"2020-070BM","NORAD_CAT_ID":"46591","INCLINATION":"53.0556","TLE_LINE1":"1 46591U 20070BM  22124.74931062  .00000371  00000-0  43842-4 0  9993","EPOCH":"2022-05-04T17:59:00.437568","CENTER_NAME":"EARTH","MEAN_MOTION_DDOT":"0.0000000000000","MEAN_MOTION_DOT":"0.00000371","MEAN_ANOMALY":"286.4170","LAUNCH_DATE":"2020-10-06","MEAN_MOTION":"15.06383340","SITE":"AFETR","RCS_SIZE":"LARGE","PERIAPSIS":"546.228","COUNTRY_CODE":"US","DECAY_DATE":null,"GP_ID":"202715006","ARG_OF_PERICENTER":"73.6983","PERIOD":"95.593","REF_FRAME":"TEME","FILE":"3429148"},{"MEAN_MOTION":"15.06408725","MEAN_MOTION_DDOT":"0.0000000000000","MEAN_MOTION_DOT":"0.00003813","MEAN_ANOMALY":"307.3012","LAUNCH_DATE":"2020-10-18","SITE":"AFETR","RCS_SIZE":"LARGE","PERIAPSIS":"545.786","COUNTRY_CODE":"US","ARG_OF_PERICENTER":"52.8161","GP_ID":"202716509","REF_FRAME":"TEME","PERIOD":"95.592","DECAY_DATE":null,"FILE":"3429148","CLASSIFICATION_TYPE":"U","ECCENTRICITY":"0.00020230","SEMIMAJOR_AXIS":"6925.322","OBJECT_NAME":"STARLINK-1715","BSTAR":"0.00027465000000","APOAPSIS":"548.588","TLE_LINE2":"2 46671  53.0555  73.0242 0002023  52.8161 307.3012 15.06408725 85329","ELEMENT_SET_NO":"999","RA_OF_ASC_NODE":"73.0242","OBJECT_TYPE":"PAYLOAD","REV_AT_EPOCH":"8532","MEAN_ELEMENT_THEORY":"SGP4","TIME_SYSTEM":"UTC","EPHEMERIS_TYPE":"0","NORAD_CAT_ID":"46671","OBJECT_ID":"2020-073B","TLE_LINE1":"1 46671U 20073B   22124.88748444  .00003813  00000-0  27465-3 0  9996","EPOCH":"2022-05-04T21:17:58.655616","CENTER_NAME":"EARTH","INCLINATION":"53.0555"}];
